[{"OBJECT_NAME":"COSMOS 2529 (757)","OBJECT_ID":"2018-086A","EPOCH":"2026-02-27T08:59:15.336384","MEAN_MOTION":2.1310188,"ECCENTRICITY":0.00079597,"INCLINATION":64.2955,"RA_OF_ASC_NODE":196.2992,"ARG_OF_PERICENTER":253.0448,"MEAN_ANOMALY":106.8346,"EPHEMERIS_TYPE":0,"CLASSIFICATION_TYPE":"U","NORAD_CAT_ID":43687,"ELEMENT_SET_NO":999,"REV_AT_EPOCH":5694,"BSTAR":0,"MEAN_MOTION_DOT":8.0e-8,"MEAN_MOTION_DDOT":0},{"OBJECT_NAME":"COSMOS 2534 (758)","OBJECT_ID":"2019-030A","EPOCH":"2026-03-04T19:44:38.791680","MEAN_MOTION":2.13102294,"ECCENTRICITY":0.0009608,"INCLINATION":64.3687,"RA_OF_ASC_NODE":196.1275,"ARG_OF_PERICENTER":279.965,"MEAN_ANOMALY":74.0554,"EPHEMERIS_TYPE":0,"CLASSIFICATION_TYPE":"U","NORAD_CAT_ID":44299,"ELEMENT_SET_NO":999,"REV_AT_EPOCH":5269,"BSTAR":0,"MEAN_MOTION_DOT":8.0e-8,"MEAN_MOTION_DDOT":0},{"OBJECT_NAME":"COSMOS 2544 (759)","OBJECT_ID":"2019-088A","EPOCH":"2026-03-04T09:13:00.350976","MEAN_MOTION":2.13101811,"ECCENTRICITY":0.00157591,"INCLINATION":65.5058,"RA_OF_ASC_NODE":77.2275,"ARG_OF_PERICENTER":259.6012,"MEAN_ANOMALY":100.2648,"EPHEMERIS_TYPE":0,"CLASSIFICATION_TYPE":"U","NORAD_CAT_ID":44850,"ELEMENT_SET_NO":999,"REV_AT_EPOCH":4848,"BSTAR":0,"MEAN_MOTION_DOT":1.5e-7,"MEAN_MOTION_DDOT":0},{"OBJECT_NAME":"COSMOS 2545 (760)","OBJECT_ID":"2020-018A","EPOCH":"2026-03-04T02:38:54.149280","MEAN_MOTION":2.13102333,"ECCENTRICITY":0.00082244,"INCLINATION":64.4178,"RA_OF_ASC_NODE":316.1141,"ARG_OF_PERICENTER":250.294,"MEAN_ANOMALY":109.6781,"EPHEMERIS_TYPE":0,"CLASSIFICATION_TYPE":"U","NORAD_CAT_ID":45358,"ELEMENT_SET_NO":999,"REV_AT_EPOCH":4642,"BSTAR":0,"MEAN_MOTION_DOT":-5.0e-7,"MEAN_MOTION_DDOT":0},{"OBJECT_NAME":"COSMOS 2547 (705K)","OBJECT_ID":"2020-075A","EPOCH":"2026-03-04T18:26:05.524800","MEAN_MOTION":2.13100113,"ECCENTRICITY":0.0006753,"INCLINATION":64.5996,"RA_OF_ASC_NODE":195.957,"ARG_OF_PERICENTER":229.6375,"MEAN_ANOMALY":130.2687,"EPHEMERIS_TYPE":0,"CLASSIFICATION_TYPE":"U","NORAD_CAT_ID":46805,"ELEMENT_SET_NO":999,"REV_AT_EPOCH":4168,"BSTAR":0,"MEAN_MOTION_DOT":8.0e-8,"MEAN_MOTION_DDOT":0},{"OBJECT_NAME":"COSMOS 2557 (706K)","OBJECT_ID":"2022-075A","EPOCH":"2026-03-03T12:36:37.175328","MEAN_MOTION":2.13101658,"ECCENTRICITY":0.00116297,"INCLINATION":64.3599,"RA_OF_ASC_NODE":318.2098,"ARG_OF_PERICENTER":283.5045,"MEAN_ANOMALY":76.4245,"EPHEMERIS_TYPE":0,"CLASSIFICATION_TYPE":"U","NORAD_CAT_ID":52984,"ELEMENT_SET_NO":999,"REV_AT_EPOCH":2846,"BSTAR":0,"MEAN_MOTION_DOT":-5.2e-7,"MEAN_MOTION_DDOT":0},{"OBJECT_NAME":"COSMOS 2559 (707K)","OBJECT_ID":"2022-130A","EPOCH":"2026-03-04T06:47:59.517600","MEAN_MOTION":2.1310126,"ECCENTRICITY":0.0010607,"INCLINATION":64.3319,"RA_OF_ASC_NODE":318.2699,"ARG_OF_PERICENTER":181.5346,"MEAN_ANOMALY":178.5209,"EPHEMERIS_TYPE":0,"CLASSIFICATION_TYPE":"U","NORAD_CAT_ID":54031,"ELEMENT_SET_NO":999,"REV_AT_EPOCH":2645,"BSTAR":0,"MEAN_MOTION_DOT":-5.5e-7,"MEAN_MOTION_DDOT":0},{"OBJECT_NAME":"COSMOS 2564 (761)","OBJECT_ID":"2022-161A","EPOCH":"2026-03-04T14:18:22.745376","MEAN_MOTION":2.1310195,"ECCENTRICITY":0.000943,"INCLINATION":64.7416,"RA_OF_ASC_NODE":196.1804,"ARG_OF_PERICENTER":209.7987,"MEAN_ANOMALY":150.1119,"EPHEMERIS_TYPE":0,"CLASSIFICATION_TYPE":"U","NORAD_CAT_ID":54377,"ELEMENT_SET_NO":999,"REV_AT_EPOCH":2540,"BSTAR":0,"MEAN_MOTION_DOT":6.0e-8,"MEAN_MOTION_DDOT":0},{"OBJECT_NAME":"COSMOS 2569 (703K)","OBJECT_ID":"2023-114A","EPOCH":"2026-03-04T14:37:03.256608","MEAN_MOTION":2.13103963,"ECCENTRICITY":0.0012899,"INCLINATION":65.242,"RA_OF_ASC_NODE":76.146,"ARG_OF_PERICENTER":291.625,"MEAN_ANOMALY":68.2783,"EPHEMERIS_TYPE":0,"CLASSIFICATION_TYPE":"U","NORAD_CAT_ID":57517,"ELEMENT_SET_NO":999,"REV_AT_EPOCH":2003,"BSTAR":0,"MEAN_MOTION_DOT":1.1e-7,"MEAN_MOTION_DDOT":0},{"OBJECT_NAME":"COSMOS 2584 (704K)","OBJECT_ID":"2025-042A","EPOCH":"2026-02-28T17:48:18.452736","MEAN_MOTION":2.13103267,"ECCENTRICITY":0.00078227,"INCLINATION":65.0213,"RA_OF_ASC_NODE":76.4877,"ARG_OF_PERICENTER":236.244,"MEAN_ANOMALY":123.7373,"EPHEMERIS_TYPE":0,"CLASSIFICATION_TYPE":"U","NORAD_CAT_ID":63130,"ELEMENT_SET_NO":999,"REV_AT_EPOCH":773,"BSTAR":0,"MEAN_MOTION_DOT":3.9e-7,"MEAN_MOTION_DDOT":0},{"OBJECT_NAME":"COSMOS 2596 (708K)","OBJECT_ID":"2025-206B","EPOCH":"2026-03-03T15:14:42.215712","MEAN_MOTION":2.13100238,"ECCENTRICITY":0.0012898,"INCLINATION":64.6947,"RA_OF_ASC_NODE":318.662,"ARG_OF_PERICENTER":315.4778,"MEAN_ANOMALY":221.7374,"EPHEMERIS_TYPE":0,"CLASSIFICATION_TYPE":"U","NORAD_CAT_ID":65590,"ELEMENT_SET_NO":999,"REV_AT_EPOCH":366,"BSTAR":0,"MEAN_MOTION_DOT":-5.3e-7,"MEAN_MOTION_DDOT":0}]
